OBJECT_NAME,OBJECT_ID,EPOCH,MEAN_MOTION,ECCENTRICITY,INCLINATION,RA_OF_ASC_NODE,ARG_OF_PERICENTER,MEAN_ANOMALY,EPHEMERIS_TYPE,CLASSIFICATION_TYPE,NORAD_CAT_ID,ELEMENT_SET_NO,REV_AT_EPOCH,BSTAR,MEAN_MOTION_DOT,MEAN_MOTION_DDOT
RANGE-A,2018-099R,2026-06-11T14:58:29.978112,15.13341348,.0010447,97.3971,205.3657,16.4722,343.6847,0,U,43773,999,41165,.21998E-3,.3861E-4,0
SNUSAT-2,2018-099AA,2026-06-11T14:42:20.677248,15.21755815,.0008897,97.4071,216.0820,321.3467,38.7132,0,U,43782,999,41218,.3331E-3,.7491E-4,0
SNUGLITE,2018-099AC,2026-06-11T02:46:08.547744,15.27045448,.00015211,97.3877,216.4553,337.6782,22.4390,0,U,43784,999,41239,.39674216E-3,.1046E-3,0
ITASAT,2018-099AE,2026-06-11T16:27:42.248160,15.18988570,.0012715,97.4034,214.3073,19.6048,340.5673,0,U,43786,999,41207,.3186E-3,.6612E-4,0
EAGLET-I,2018-099AJ,2026-06-11T15:06:20.389824,15.12897029,.0011224,97.4235,212.4449,13.4989,346.6540,0,U,43790,999,41149,.22801E-3,.3955E-4,0
ESEO,2018-099AL,2026-06-11T15:49:07.148064,15.04225493,.0011896,97.3966,200.2837,358.5401,1.5789,0,U,43792,999,41097,.14545E-3,.1966E-4,0
THEA,2018-099AQ,2026-06-11T17:25:28.092576,15.34830644,.0005949,97.4449,232.3656,308.2278,51.8429,0,U,43796,999,41185,.49039E-3,.16505E-3,0
ASTROCAST 0.1,2018-099AS,2026-06-11T18:31:13.966752,15.49176024,.0004689,97.4384,241.1012,224.2944,135.7932,0,U,43798,999,41359,.59712E-3,.32515E-3,0
JY1SAT (JO-97),2018-099AX,2026-06-11T10:03:24.374304,15.33467542,.0004121,97.4135,225.2337,290.5933,69.4867,0,U,43803,999,41274,.42176E-3,.13576E-3,0
SUOMI-100,2018-099AY,2026-06-11T16:57:32.522688,15.28290236,.0008408,97.4194,223.1205,302.3070,57.7355,0,U,43804,999,41258,.40226E-3,.11026E-3,0
CENTAURI-1,2018-099BD,2026-06-11T15:54:33.391872,15.16311066,.0013621,97.4226,214.5008,354.3240,5.7836,0,U,43809,999,41166,.24298E-3,.4652E-4,0
GLOBAL-2,2018-099BG,2026-06-11T15:15:58.224384,15.08641288,.0006466,97.3564,199.3803,158.3042,201.8462,0,U,43812,999,41107,.19667E-3,.302E-4,0
SEAHAWK-1,2018-099BQ,2026-06-11T16:22:21.226368,15.22719096,.0007153,97.3968,215.2516,337.9927,22.1001,0,U,43820,999,41169,.36088E-3,.8354E-4,0
SAUDISAT 5A,2018-102A,2026-06-11T20:39:01.024128,15.27992536,.0010653,97.3075,224.5439,145.5429,214.6504,0,U,43831,999,41486,.19358E-3,.5221E-4,0
SAUDISAT 5B,2018-102C,2026-06-11T21:07:26.877216,15.28252415,.0011309,97.3183,227.6233,147.9270,212.2660,0,U,43833,999,41498,.17891E-3,.4859E-4,0
ISAT,2018-111D,2026-06-11T18:58:36.899040,15.64337273,.0001251,97.5882,97.5998,59.2219,300.9163,0,U,43879,999,41032,.91873E-3,.88429E-3,0
UWE-4,2018-111E,2026-06-11T18:40:29.161056,15.45791225,.000652,97.5852,90.9210,5.5235,354.6084,0,U,43880,999,40994,.68244E-3,.33079E-3,0
D-STAR ONE (SPARROW),2018-111F,2026-06-11T02:09:26.300736,15.72684748,.0004611,97.6115,102.3584,103.2888,256.8889,0,U,43881,999,41041,.10145738E-2,.138135E-2,0
JILIN-1 09,2019-005B,2026-06-11T18:48:22.192416,15.20467619,.0003791,97.4737,257.7924,105.4375,254.7279,0,U,43943,999,40832,.18814E-3,.4039E-4,0
JILIN-1 10,2019-005E,2026-06-11T19:32:20.724000,15.25665146,.0006671,97.4781,261.6185,302.5339,57.5254,0,U,43946,999,40849,.21221E-3,.533E-4,0
EGYPTSAT-A (MISRSAT-A),2019-008A,2026-06-11T20:12:48.674592,14.72300941,.0001235,98.0128,227.6763,93.1215,267.0133,0,U,44047,999,39245,.8481E-4,.487E-5,0
EMISAT,2019-018A,2026-06-11T19:23:01.912992,14.43684185,.0017449,98.4650,221.6375,231.7662,128.1958,0,U,44078,999,37928,.32343E-4,.66E-6,0
JILIN-1 GAOFEN 3A,2019-032C,2026-06-11T19:19:56.792352,15.32515763,.0006583,44.9764,26.5529,269.6446,90.3685,0,U,44312,999,38701,.3365E-3,.10481E-3,0
WT 1B,2019-032G,2026-06-11T20:03:18.843264,15.27083152,.000957,44.9723,90.1473,221.9314,138.0837,0,U,44316,999,38626,.38855E-3,.10247E-3,0
PROX-1,2019-036A,2026-06-11T15:14:00.888864,14.90479846,.0005369,23.9924,151.3410,331.4108,28.6097,0,U,44339,999,37264,.11914E-2,.12207E-3,0
NPSAT1,2019-036B,2026-06-11T13:38:16.871712,14.74532298,.0007737,23.9993,254.3571,142.5746,217.5289,0,U,44340,999,37166,.63983E-3,.4601E-4,0
FORMOSAT 7-3,2019-036E,2026-06-10T20:08:27.134016,15.09759770,.00007483,23.9983,222.2335,162.6468,197.4061,0,U,44343,999,38228,.20705068E-3,.3776E-4,0
FORMOSAT 7-1,2019-036L,2026-06-11T10:42:12.449088,14.96480132,.0000999,23.9984,71.0959,106.0435,254.0176,0,U,44349,999,38379,.16902E-3,.2269E-4,0
