RANGE-A                 
1 43773U 18099R   26162.62395808  .00003861  00000+0  21998-3 0  9998
2 43773  97.3971 205.3657 0010447  16.4722 343.6847 15.13341348411653
SNUSAT-2                
1 43782U 18099AA  26162.61273932  .00007491  00000+0  33310-3 0  9994
2 43782  97.4071 216.0820 0008897 321.3467  38.7132 15.21755815412181
SNUGLITE                
1 43784U 18099AC  26162.11537671  .00010460  00000+0  39674-3 0  9993
2 43784  97.3877 216.4553 0001521 337.6782  22.4390 15.27045448412399
ITASAT                  
1 43786U 18099AE  26162.68590565  .00006612  00000+0  31860-3 0  9991
2 43786  97.4034 214.3073 0012715  19.6048 340.5673 15.18988570412075
EAGLET-I                
1 43790U 18099AJ  26162.62940266  .00003955  00000+0  22801-3 0  9999
2 43790  97.4235 212.4449 0011224  13.4989 346.6540 15.12897029411496
ESEO                    
1 43792U 18099AL  26162.65911051  .00001966  00000+0  14545-3 0  9990
2 43792  97.3966 200.2837 0011896 358.5401   1.5789 15.04225493410976
THEA                    
1 43796U 18099AQ  26162.72601959  .00016505  00000+0  49039-3 0  9996
2 43796  97.4449 232.3656 0005949 308.2278  51.8429 15.34830644411858
ASTROCAST 0.1           
1 43798U 18099AS  26162.77168943  .00032515  00000+0  59712-3 0  9992
2 43798  97.4384 241.1012 0004689 224.2944 135.7932 15.49176024413594
JY1SAT (JO-97)          
1 43803U 18099AX  26162.41903211  .00013576  00000+0  42176-3 0  9997
2 43803  97.4135 225.2337 0004121 290.5933  69.4867 15.33467542412740
SUOMI-100               
1 43804U 18099AY  26162.70662642  .00011026  00000+0  40226-3 0  9992
2 43804  97.4194 223.1205 0008408 302.3070  57.7355 15.28290236412585
CENTAURI-1              
1 43809U 18099BD  26162.66288648  .00004652  00000+0  24298-3 0  9990
2 43809  97.4226 214.5008 0013621 354.3240   5.7836 15.16311066411667
GLOBAL-2                
1 43812U 18099BG  26162.63609056  .00003020  00000+0  19667-3 0  9993
2 43812  97.3564 199.3803 0006466 158.3042 201.8462 15.08641288411071
SEAHAWK-1               
1 43820U 18099BQ  26162.68219012  .00008354  00000+0  36088-3 0  9997
2 43820  97.3968 215.2516 0007153 337.9927  22.1001 15.22719096411698
SAUDISAT 5A             
1 43831U 18102A   26162.86042852  .00005221  00000+0  19358-3 0  9991
2 43831  97.3075 224.5439 0010653 145.5429 214.6504 15.27992536414860
SAUDISAT 5B             
1 43833U 18102C   26162.88017219  .00004859  00000+0  17891-3 0  9990
2 43833  97.3183 227.6233 0011309 147.9270 212.2660 15.28252415414983
ISAT                    
1 43879U 18111D   26162.79070485  .00088429  00000+0  91873-3 0  9991
2 43879  97.5882  97.5998 0001251  59.2219 300.9163 15.64337273410329
UWE-4                   
1 43880U 18111E   26162.77811529  .00033079  00000+0  68244-3 0  9990
2 43880  97.5852  90.9210 0006520   5.5235 354.6084 15.45791225409942
D-STAR ONE (SPARROW)    
1 43881U 18111F   26162.08988774  .00138135  00000+0  10146-2 0  9998
2 43881  97.6115 102.3584 0004611 103.2888 256.8889 15.72684748410418
JILIN-1 09              
1 43943U 19005B   26162.78359019  .00004039  00000+0  18814-3 0  9997
2 43943  97.4737 257.7924 0003791 105.4375 254.7279 15.20467619408327
JILIN-1 10              
1 43946U 19005E   26162.81412875  .00005330  00000+0  21221-3 0  9995
2 43946  97.4781 261.6185 0006671 302.5339  57.5254 15.25665146408492
EGYPTSAT-A (MISRSAT-A)  
1 44047U 19008A   26162.84223003  .00000487  00000+0  84810-4 0  9999
2 44047  98.0128 227.6763 0001235  93.1215 267.0133 14.72300941392450
EMISAT                  
1 44078U 19018A   26162.80766103  .00000066  00000+0  32343-4 0  9990
2 44078  98.4650 221.6375 0017449 231.7662 128.1958 14.43684185379282
JILIN-1 GAOFEN 3A       
1 44312U 19032C   26162.80551843  .00010481  00000+0  33650-3 0  9993
2 44312  44.9764  26.5529 0006583 269.6446  90.3685 15.32515763387016
WT 1B                   
1 44316U 19032G   26162.83563476  .00010247  00000+0  38855-3 0  9997
2 44316  44.9723  90.1473 0009570 221.9314 138.0837 15.27083152386265
PROX-1                  
1 44339U 19036A   26162.63473251  .00012207  00000+0  11914-2 0  9999
2 44339  23.9924 151.3410 0005369 331.4108  28.6097 14.90479846372648
NPSAT1                  
1 44340U 19036B   26162.56825083  .00004601  00000+0  63983-3 0  9990
2 44340  23.9993 254.3571 0007737 142.5746 217.5289 14.74532298371664
FORMOSAT 7-3            
1 44343U 19036E   26161.83920294  .00003776  00000+0  20705-3 0  9999
2 44343  23.9983 222.2335 0000748 162.6468 197.4061 15.09759770382286
FORMOSAT 7-1            
1 44349U 19036L   26162.44597742  .00002269  00000+0  16902-3 0  9991
2 44349  23.9984  71.0959 0000999 106.0435 254.0176 14.96480132383791
